IRIDIUM 64 [+]          
1 25287U 98021C   17125.24900746  .00000150  00000-0  46406-4 0  9992
2 25287  86.3982 241.8725 0002268  91.8061 268.3395 14.34218612998569
IRIDIUM 65 [+]          
1 25288U 98021D   17125.25535582  .00000152  00000-0  47090-4 0  9998
2 25288  86.3980 241.7741 0002416  98.3663 261.7807 14.34218528998583
IRIDIUM 66 [+]          
1 25289U 98021E   17125.26169048  .00000146  00000-0  44924-4 0  9996
2 25289  86.3980 241.6752 0002302  98.7010 261.4446 14.34218718998867
IRIDIUM 67 [+]          
1 25290U 98021F   17125.26803889  .00000147  00000-0  45577-4 0  9992
2 25290  86.3981 241.8083 0002281  97.2247 262.9208 14.34218495998595
IRIDIUM 68 [+]          
1 25291U 98021G   17125.27435083  .00000145  00000-0  44825-4 0  9994
2 25291  86.3983 241.9235 0002311  95.5528 264.5932 14.34218805998569
IRIDIUM 69 [-]          
1 25319U 98026A   17124.57158340  .00000090  00000-0  22980-4 0  9997
2 25319  86.3984 264.0452 0003879  77.7452 282.4181 14.38664783996518
IRIDIUM 71 [-]          
1 25320U 98026B   17125.26976523  .00000116  00000-0  31114-4 0  9995
2 25320  86.3972 259.6603 0004097 109.4179 250.7462 14.39080065997031
IRIDIUM 70 [+]          
1 25342U 98032A   17125.24228309  .00000152  00000-0  47256-4 0  9990
2 25342  86.3986 242.1768 0002319  99.7139 323.9771 14.34218894992669
IRIDIUM 72 [+]          
1 25343U 98032B   17124.38004727  .00000144  00000-0  44182-4 0  9997
2 25343  86.3980 242.1515 0002303  97.6361 262.5096 14.34218720992825
IRIDIUM 73 [-]          
1 25344U 98032C   17125.25950166  .00000118  00000-0  25596-4 0  9991
2 25344  86.4471 221.0609 0002173 111.1495 248.9942 14.49030745  1034
IRIDIUM 74 [S]          
1 25345U 98032D   17125.28859628  .00000173  00000-0  46287-4 0  9997
2 25345  86.4495 242.1993 0007436 156.5150 259.3501 14.42447241996271
IRIDIUM 75 [+]          
1 25346U 98032E   17124.94452992  .00000135  00000-0  41028-4 0  9999
2 25346  86.3984 242.1666 0002257  96.8923 263.2530 14.34218961993203
IRIDIUM 3 [+]           
1 25431U 98048A   17124.51880538  .00000051  00000-0  11094-4 0  9992
2 25431  86.3938 273.9459 0002290  97.6914 306.6549 14.34214609979082
IRIDIUM 76 [+]          
1 25432U 98048B   17125.04413378  .00000067  00000-0  16712-4 0  9995
2 25432  86.3936 273.4816 0002113  97.6608  39.0941 14.34214377979419
IRIDIUM 82 [+]          
1 25467U 98051A   17124.76781327  .08028546  00000-0  16468+1 0  9991
2 25467  86.3949  40.2557 0032922 172.8909 179.3446 14.54694032980382
IRIDIUM 81 [+]          
1 25468U 98051B   17124.84113924  .00000170  00000-0  53687-4 0  9996
2 25468  86.3998  39.9018 0002113  80.6901 279.4534 14.34222054976598
IRIDIUM 80 [+]          
1 25469U 98051C   17125.28131830  .00000125  00000-0  37539-4 0  9990
2 25469  86.4000  40.0217 0002908  73.8216  38.3825 14.34212340976652
IRIDIUM 77 [+]          
1 25471U 98051E   17125.26945726  .00000126  00000-0  37913-4 0  9995
2 25471  86.3994  39.5793 0002210  85.1927  31.3762 14.34219424981625
IRIDIUM 2 [-]           
1 25527U 98066A   17125.23152705  .00001260  00000-0  62909-4 0  9990
2 25527  85.5323  57.6042 0006906 242.1432 117.9108 15.16441259 11852
IRIDIUM 86 [+]          
1 25528U 98066B   17125.20550265  .00000154  00000-0  47976-4 0  9999
2 25528  86.3982   7.7777 0002252  89.2479 270.8975 14.34215533972967
IRIDIUM 84 [+]          
1 25530U 98066D   17125.16745127  .00000142  00000-0  43621-4 0  9990
2 25530  86.3983   7.9578 0002095  85.7086 274.4349 14.34215633970764
IRIDIUM 83 [+]          
1 25531U 98066E   17125.19916561  .00000148  00000-0  45912-4 0  9997
2 25531  86.3987   8.0681 0002109  84.0384 276.1052 14.34215793967904
IRIDIUM 20 [+]          
1 25577U 98074A   17124.90984636  .00000059  00000-0  13946-4 0  9995
2 25577  86.3936 273.4595 0002241  95.2201 264.9251 14.34213141147629
IRIDIUM 11 [+]          
1 25578U 98074B   17125.15535014  .00000019  00000-0 -26136-6 0  9990
2 25578  86.3931 273.5590 0002225  89.7817  31.5953 14.34213768971238
IRIDIUM 14 [+]          
1 25777U 99032A   17125.24267501  .00000145  00000-0  44586-4 0  9995
2 25777  86.3983 241.8733 0002374  99.6271 260.5193 14.34218253948443
IRIDIUM 21 [+]          
1 25778U 99032B   17125.28069022  .00000141  00000-0  43275-4 0  9998
2 25778  86.3982 241.8768 0002127  97.2513 262.8924 14.34219105941885
IRIDIUM 91 [+]          
1 27372U 02005A   17125.13625414 -.00000042  00000-0 -21914-4 0  9999
2 27372  86.3922 305.1688 0001927 101.6565  34.9288 14.34215873805406
IRIDIUM 90 [S]          
1 27373U 02005B   17125.19603730  .00000157  00000-0  41090-4 0  9995
2 27373  86.4497   8.0526 0002178  89.0275 271.1176 14.42965455805083
IRIDIUM 94 [+]          
1 27374U 02005C   17125.03342007  .00000094  00000-0  26488-4 0  9990
2 27374  86.3936 273.7389 0002058 114.7939 359.3778 14.34214694809735
IRIDIUM 95 [+]          
1 27375U 02005D   17125.00833399 -.00000026  00000-0 -16483-4 0  9998
2 27375  86.3690 305.2976 0002016  90.2426 269.9001 14.34215675804694
IRIDIUM 96 [+]          
1 27376U 02005E   17125.12594712 -.00000005  00000-0 -88029-5 0  9998
2 27376  86.3979 337.2156 0000942  64.2657 295.8636 14.34223037210608
IRIDIUM 97 [+]          
1 27450U 02031A   17125.09424838  .00000003  00000-0 -60324-5 0  9992
2 27450  86.3948 336.9211 0002139  78.3261 281.8175 14.34221987784007
IRIDIUM 98 [+]          
1 27451U 02031B   17125.21853507  .00000040  00000-0  70619-5 0  9994
2 27451  86.3992  40.1493 0002733  87.6507  27.7513 14.34212893785144
